[{"OBJECT_NAME":"STARLINK-2465","OBJECT_ID":"2021-027AJ","EPOCH":"2026-03-09T23:08:38.123232","MEAN_MOTION":15.30205814,"ECCENTRICITY":0.00013401,"INCLINATION":53.1602,"RA_OF_ASC_NODE":153.6781,"ARG_OF_PERICENTER":76.8166,"MEAN_ANOMALY":283.2984,"EPHEMERIS_TYPE":0,"CLASSIFICATION_TYPE":"U","NORAD_CAT_ID":48124,"ELEMENT_SET_NO":999,"REV_AT_EPOCH":27269,"BSTAR":0.00036558463,"MEAN_MOTION_DOT":0.00010486,"MEAN_MOTION_DDOT":0},{"OBJECT_NAME":"GEOSCAN 1 (RS92S1)","OBJECT_ID":"2025-155E","EPOCH":"2026-03-09T22:44:05.846496","MEAN_MOTION":15.28410635,"ECCENTRICITY":0.00087099,"INCLINATION":97.4463,"RA_OF_ASC_NODE":37.403,"ARG_OF_PERICENTER":153.6429,"MEAN_ANOMALY":206.5255,"EPHEMERIS_TYPE":0,"CLASSIFICATION_TYPE":"U","NORAD_CAT_ID":64880,"ELEMENT_SET_NO":999,"REV_AT_EPOCH":6560,"BSTAR":0.00054367431,"MEAN_MOTION_DOT":0.00014993,"MEAN_MOTION_DDOT":0}]
